NORAD_CAT_ID,OBJECT_NAME,OBJECT_TYPE,EPOCH,MEAN_MOTION,ECCENTRICITY,INCLINATION,RA_OF_ASC_NODE,ARG_OF_PERICENTER,MEAN_ANOMALY,BSTAR,MEAN_MOTION_DOT,MEAN_MOTION_DDOT,TLE_LINE0,TLE_LINE1,TLE_LINE2,SEMIMAJOR_AXIS,PERIOD,APOGEE,PERIGEE,DECAYED
55749.0,STARLINK-5560,PAYLOAD,2024-05-09 10:37:18,14.98350446,0.0003105,69.9986,131.8591,264.151,95.9296,-0.00040602,-4.937e-05,0.0,0 STARLINK-5560,1 55749U 23028J   24130.44257745 -.00004937  00000-0 -40602-3 0  9993,2 55749  69.9986 131.8591 0003105 264.1510  95.9296 14.98350446 65796,6950.13,96.106,574.153,569.837,0.0
55749.0,STARLINK-5560,PAYLOAD,2024-05-09 17:01:51,14.98323377,0.0003175,69.9987,131.1858,268.4776,91.602,8.9532e-05,9.75e-06,0.0,0 STARLINK-5560,1 55749U 23028J   24130.70962693  .00000975  00000-0  89532-4 0  9999,2 55749  69.9987 131.1858 0003175 268.4776  91.6020 14.98323377 65830,6950.213,96.107,574.285,569.872,0.0
55749.0,STARLINK-5560,PAYLOAD,2024-05-10 10:39:20,14.98326877,0.0003152,69.9986,129.3342,268.7793,91.3005,0.00010719,1.186e-05,0.0,0 STARLINK-5560,1 55749U 23028J   24131.44398887  .00001186  00000-0  10719-3 0  9994,2 55749  69.9986 129.3342 0003152 268.7793  91.3005 14.98326877 65943,6950.203,96.107,574.258,569.877,0.0
55749.0,STARLINK-5560,PAYLOAD,2024-05-11 04:16:49,14.98333468,0.0003104,69.9987,127.4827,267.9902,92.0902,0.00017114,1.95e-05,0.0,0 STARLINK-5560,1 55749U 23028J   24132.17834830  .00001950  00000-0  17114-3 0  9993,2 55749  69.9987 127.4827 0003104 267.9902  92.0902 14.98333468 66052,6950.182,96.107,574.205,569.89,0.0
55749.0,STARLINK-5560,PAYLOAD,2024-05-11 09:05:12,14.98358265,0.0003039,69.9987,126.9777,266.7512,93.3299,0.00052816,6.219e-05,0.0,0 STARLINK-5560,1 55749U 23028J   24132.37861530  .00006219  00000-0  52816-3 0  9993,2 55749  69.9987 126.9777 0003039 266.7512  93.3299 14.98358265 66089,6950.105,96.105,574.083,569.858,0.0
55749.0,STARLINK-5560,PAYLOAD,2024-05-11 17:05:53,14.98345495,0.0003097,69.9998,126.1361,271.6826,88.3978,0.00043295,5.079e-05,0.0,0 STARLINK-5560,1 55749U 23028J   24132.71242197  .00005079  00000-0  43295-3 0  9997,2 55749  69.9998 126.1361 0003097 271.6826  88.3978 14.98345495 66134,6950.145,96.106,574.162,569.858,0.0
55749.0,STARLINK-5560,PAYLOAD,2024-05-12 09:07:13,14.98341728,0.0003087,69.9997,124.4523,270.6199,89.4606,0.00024531,2.836e-05,0.0,0 STARLINK-5560,1 55749U 23028J   24133.38001932  .00002836  00000-0  24531-3 0  9991,2 55749  69.9997 124.4523 0003087 270.6199  89.4606 14.98341728 66231,6950.157,96.106,574.167,569.876,0.0
55749.0,STARLINK-5560,PAYLOAD,2024-05-12 17:07:54,14.98332227,0.0002863,70.0009,123.6104,271.9382,88.1449,2.9418e-05,2.58e-06,0.0,0 STARLINK-5560,1 55749U 23028J   24133.71382332  .00000258  00000-0  29418-4 0  9990,2 55749  70.0009 123.6104 0002863 271.9382  88.1449 14.98332227 66283,6950.186,96.107,574.041,570.061,0.0
55749.0,STARLINK-5560,PAYLOAD,2024-05-13 05:56:59,14.98318161,0.0002677,70.0002,122.2644,268.1524,91.9328,-0.00029857,-3.652e-05,0.0,0 STARLINK-5560,1 55749U 23028J   24134.24791262 -.00003652  00000-0 -29857-3 0  9994,2 55749  70.0002 122.2644 0002677 268.1524  91.9328 14.98318161 66367,6950.23,96.108,573.955,570.234,0.0
55749.0,STARLINK-5560,PAYLOAD,2024-05-13 09:09:16,14.98318793,0.0002674,69.9996,121.9281,265.6094,94.4759,-0.00020161,-2.497e-05,0.0,0 STARLINK-5560,1 55749U 23028J   24134.38144128 -.00002497  00000-0 -20161-3 0  9997,2 55749  69.9996 121.9281 0002674 265.6094  94.4759 14.98318793 66389,6950.228,96.108,573.951,570.234,0.0
55749.0,STARLINK-5560,PAYLOAD,2024-05-14 09:11:17,14.98326198,0.0003016,69.9986,119.4028,272.4829,87.5985,-2.8239e-05,-4.3e-06,0.0,0 STARLINK-5560,1 55749U 23028J   24135.38283703 -.00000430  00000-0 -28239-4 0  9991,2 55749  69.9986 119.4028 0003016 272.4829  87.5985 14.98326198 66531,6950.205,96.107,574.166,569.973,0.0
55749.0,STARLINK-5560,PAYLOAD,2024-05-14 15:35:49,14.98328736,0.000301,69.9986,118.7295,272.4875,87.594,8.0458e-06,3e-08,0.0,0 STARLINK-5560,1 55749U 23028J   24135.64987610  .00000003  00000-0  80458-5 0  9994,2 55749  69.9986 118.7295 0003010 272.4875  87.5940 14.98328736 66579,6950.197,96.107,574.154,569.97,0.0
55749.0,STARLINK-5560,PAYLOAD,2024-05-15 09:13:18,14.98334214,0.000293,69.9999,116.8779,273.0163,87.0661,0.00050819,5.976e-05,0.0,0 STARLINK-5560,1 55749U 23028J   24136.38423911  .00005976  00000-0  50819-3 0  9995,2 55749  69.9999 116.8779 0002930 273.0163  87.0661 14.98334214 66681,6950.18,96.107,574.081,570.008,0.0
55749.0,STARLINK-5560,PAYLOAD,2024-05-16 07:39:10,14.98360847,0.00029,70.0003,114.5214,271.9522,88.1305,0.0008418,9.973e-05,0.0,0 STARLINK-5560,1 55749U 23028J   24137.31886576  .00009973  00000-0  84180-3 0  9998,2 55749  70.0003 114.5214 0002900 271.9522  88.1305 14.98360847 66826,6950.098,96.105,573.978,569.947,0.0
55749.0,STARLINK-5560,PAYLOAD,2024-05-16 15:39:50,14.98357568,0.0002498,70.0017,113.6796,269.3391,90.7482,0.00052312,6.159e-05,0.0,0 STARLINK-5560,1 55749U 23028J   24137.65266295  .00006159  00000-0  52312-3 0  9990,2 55749  70.0017 113.6796 0002498 269.3391  90.7482 14.98357568 66879,6950.108,96.105,573.709,570.237,0.0
55749.0,STARLINK-5560,PAYLOAD,2024-05-16 22:04:22,14.98353342,0.0002069,70.0031,113.0081,262.2851,97.8073,0.00024707,2.858e-05,0.0,0 STARLINK-5560,1 55749U 23028J   24137.91970292  .00002858  00000-0  24707-3 0  9997,2 55749  70.0031 113.0081 0002069 262.2851  97.8073 14.98353342 66918,6950.121,96.106,573.424,570.548,0.0
55749.0,STARLINK-5560,PAYLOAD,2024-05-17 04:28:54,14.98342466,0.0002854,70.0001,112.3334,268.021,92.0623,4.9293e-05,4.95e-06,0.0,0 STARLINK-5560,1 55749U 23028J   24138.18674229  .00000495  00000-0  49293-4 0  9991,2 55749  70.0001 112.3334 0002854 268.0210  92.0623 14.98342466 66950,6950.154,96.106,574.003,570.036,0.0
55749.0,STARLINK-5560,PAYLOAD,2024-05-17 07:41:10,14.98338833,0.0002544,70.0006,111.9987,262.8874,97.1996,2.2251e-05,1.73e-06,0.0,0 STARLINK-5560,1 55749U 23028J   24138.32026517  .00000173  00000-0  22251-4 0  9996,2 55749  70.0006 111.9987 0002544 262.8874  97.1996 14.98338833 66972,6950.166,96.106,573.799,570.262,0.0
55749.0,STARLINK-5560,PAYLOAD,2024-05-17 15:41:51,14.98334991,0.0002556,70.0002,111.1548,273.1561,86.9306,-9.9349e-05,-1.278e-05,0.0,0 STARLINK-5560,1 55749U 23028J   24138.65406508 -.00001278  00000-0 -99349-4 0  9995,2 55749  70.0002 111.1548 0002556 273.1561  86.9306 14.98334991 67023,6950.177,96.107,573.819,570.266,0.0
55749.0,STARLINK-5560,PAYLOAD,2024-05-18 04:30:56,14.98332017,0.0002617,69.9991,109.8066,267.5416,92.5444,-0.00013416,-1.693e-05,0.0,0 STARLINK-5560,1 55749U 23028J   24139.18815130 -.00001693  00000-0 -13416-3 0  9990,2 55749  69.9991 109.8066 0002617 267.5416  92.5444 14.98332017 67102,6950.187,96.107,573.871,570.233,0.0
55749.0,STARLINK-5560,PAYLOAD,2024-05-18 07:43:12,14.98334149,0.0002513,69.9997,109.4701,266.5202,93.567,-7.4284e-05,-9.79e-06,0.0,0 STARLINK-5560,1 55749U 23028J   24139.32166857 -.00000979  00000-0 -74284-4 0  9998,2 55749  69.9997 109.4701 0002513 266.5202  93.5670 14.98334149 67129,6950.18,96.107,573.792,570.298,0.0
55749.0,STARLINK-5560,PAYLOAD,2024-05-18 22:08:24,14.98328841,0.0002592,69.9992,107.9563,269.8931,90.1931,7.6202e-05,8.16e-06,0.0,0 STARLINK-5560,1 55749U 23028J   24139.92250800  .00000816  00000-0  76202-4 0  9996,2 55749  69.9992 107.9563 0002592 269.8931  90.1931 14.98328841 67210,6950.196,96.107,573.863,570.26,0.0
55749.0,STARLINK-5560,PAYLOAD,2024-05-19 04:32:56,14.98330954,0.0002624,69.9996,107.2826,267.2508,92.8351,8.3799e-05,9.07e-06,0.0,0 STARLINK-5560,1 55749U 23028J   24140.18954716  .00000907  00000-0  83799-4 0  9993,2 55749  69.9996 107.2826 0002624 267.2508  92.8351 14.98330954 67254,6950.19,96.107,573.879,570.231,0.0
55749.0,STARLINK-5560,PAYLOAD,2024-05-19 07:45:13,14.98329695,0.0002704,69.9995,106.9462,267.8404,92.2446,6.819e-05,7.21e-06,0.0,0 STARLINK-5560,1 55749U 23028J   24140.32306853  .00000721  00000-0  68190-4 0  9994,2 55749  69.9995 106.9462 0002704 267.8404  92.2446 14.98329695 67276,6950.194,96.107,573.938,570.18,0.0
55749.0,STARLINK-5560,PAYLOAD,2024-05-20 04:34:58,14.98331366,0.0002772,70.0003,104.7581,271.4098,88.6744,0.00017372,1.98e-05,0.0,0 STARLINK-5560,1 55749U 23028J   24141.19094935  .00001980  00000-0  17372-3 0  9998,2 55749  70.0003 104.7581 0002772 271.4098  88.6744 14.98331366 67405,6950.189,96.107,573.98,570.127,0.0
55749.0,STARLINK-5560,PAYLOAD,2024-05-20 07:47:14,14.98334138,0.0002769,70.0004,104.4215,271.5111,88.573,0.00021206,2.438e-05,0.0,0 STARLINK-5560,1 55749U 23028J   24141.32446779  .00002438  00000-0  21206-3 0  9990,2 55749  70.0004 104.4215 0002769 271.5111  88.5730 14.98334138 67426,6950.18,96.107,573.97,570.121,0.0
55749.0,STARLINK-5560,PAYLOAD,2024-05-21 04:36:59,14.98329322,0.0002701,69.9999,102.2344,269.7029,90.382,9.2932e-05,1.016e-05,0.0,0 STARLINK-5560,1 55749U 23028J   24142.19235163  .00001016  00000-0  92932-4 0  9995,2 55749  69.9999 102.2344 0002701 269.7029  90.3820 14.98329322 67552,6950.195,96.107,573.937,570.183,0.0
55749.0,STARLINK-5560,PAYLOAD,2024-05-21 07:49:15,14.98331393,0.0002684,70.0,101.8979,269.5222,90.563,0.00010953,1.214e-05,0.0,0 STARLINK-5560,1 55749U 23028J   24142.32586981  .00001214  00000-0  10953-3 0  9999,2 55749  70.0000 101.8979 0002684 269.5222  90.5630 14.98331393 67574,6950.189,96.107,573.919,570.188,0.0
55749.0,STARLINK-5560,PAYLOAD,2024-05-21 22:14:27,14.98331772,0.0002515,70.0005,100.3835,263.6881,96.3992,0.0001034,1.141e-05,0.0,0 STARLINK-5560,1 55749U 23028J   24142.92670898  .00001141  00000-0  10340-3 0  9995,2 55749  70.0005 100.3835 0002515 263.6881  96.3992 14.98331772 67669,6950.187,96.107,573.8,570.304,0.0
55749.0,STARLINK-5560,PAYLOAD,2024-05-22 04:38:59,14.98331948,0.0002545,70.0004,99.7102,260.1104,99.9768,8.9889e-05,9.8e-06,0.0,0 STARLINK-5560,1 55749U 23028J   24143.19374864  .00000980  00000-0  89889-4 0  9994,2 55749  70.0004  99.7102 0002545 260.1104  99.9768 14.98331948 67709,6950.187,96.107,573.821,570.283,0.0
